{
  "norad_id": 65963,
  "name": "KUIPER-00137",
  "history": [
    {
      "epoch": "2026-03-28T18:07:05.791296Z",
      "apogee_km": 629.75371847316,
      "perigee_km": 629.3286327150281,
      "latitude_deg": 7.21222562778139e-05,
      "longitude_deg": 163.3616988391162,
      "height_km": 630.2923679473196,
      "semi_major_axis_km": 7007.678175594094,
      "eccentricity": 3.033e-05,
      "inclination_deg": 51.9033,
      "raan_deg": 261.3066,
      "arg_perigee_deg": 91.2116,
      "mean_anomaly_deg": 268.8882,
      "mean_motion_rev_day": 14.79931243
    },
    {
      "epoch": "2026-03-29T03:50:33.177408Z",
      "apogee_km": 629.6779917120339,
      "perigee_km": 629.3766621459763,
      "latitude_deg": 1.2762066210907222e-05,
      "longitude_deg": 15.305881999716412,
      "height_km": 630.2589520619305,
      "semi_major_axis_km": 7007.664326929005,
      "eccentricity": 2.15e-05,
      "inclination_deg": 51.9023,
      "raan_deg": 259.5143,
      "arg_perigee_deg": 84.2537,
      "mean_anomaly_deg": 275.845,
      "mean_motion_rev_day": 14.7993563
    },
    {
      "epoch": "2026-03-30T04:09:12.441024Z",
      "apogee_km": 629.9025637025834,
      "perigee_km": 629.1977305293276,
      "latitude_deg": 3.8492423714012515e-05,
      "longitude_deg": 5.1650908339423625,
      "height_km": 630.4592183687713,
      "semi_major_axis_km": 7007.687147115956,
      "eccentricity": 5.029e-05,
      "inclination_deg": 51.9035,
      "raan_deg": 255.0355,
      "arg_perigee_deg": 117.4636,
      "mean_anomaly_deg": 242.6378,
      "mean_motion_rev_day": 14.79928401
    },
    {
      "epoch": "2026-03-30T10:38:10.716576Z",
      "apogee_km": 629.9305000235208,
      "perigee_km": 629.150405369488,
      "latitude_deg": -8.04062001465724e-06,
      "longitude_deg": -93.53850130455668,
      "height_km": 630.4059195407452,
      "semi_major_axis_km": 7007.677452696505,
      "eccentricity": 5.566e-05,
      "inclination_deg": 51.903,
      "raan_deg": 253.841,
      "arg_perigee_deg": 107.775,
      "mean_anomaly_deg": 252.3273,
      "mean_motion_rev_day": 14.79931472
    },
    {
      "epoch": "2026-03-30T20:21:37.974816Z",
      "apogee_km": 629.9529576376162,
      "perigee_km": 629.0837280688884,
      "latitude_deg": -3.4984648756440917e-07,
      "longitude_deg": 118.40706888025828,
      "height_km": 630.3511443218055,
      "semi_major_axis_km": 7007.655342853252,
      "eccentricity": 6.202e-05,
      "inclination_deg": 51.9028,
      "raan_deg": 252.0495,
      "arg_perigee_deg": 101.4834,
      "mean_anomaly_deg": 258.6198,
      "mean_motion_rev_day": 14.79938476
    },
    {
      "epoch": "2026-03-31T17:25:47.675136Z",
      "apogee_km": 629.9640636041695,
      "perigee_km": 629.1161346751742,
      "latitude_deg": -5.453795790783656e-05,
      "longitude_deg": 157.6177218993829,
      "height_km": 630.3863737203219,
      "semi_major_axis_km": 7007.677099139672,
      "eccentricity": 6.05e-05,
      "inclination_deg": 51.9004,
      "raan_deg": 248.1659,
      "arg_perigee_deg": 103.6739,
      "mean_anomaly_deg": 256.429,
      "mean_motion_rev_day": 14.79931584
    },
    {
      "epoch": "2026-04-01T16:07:12.333792Z",
      "apogee_km": 630.008182391286,
      "perigee_km": 629.1069928673169,
      "latitude_deg": 2.1274450023799336e-05,
      "longitude_deg": 172.15338513093286,
      "height_km": 630.38689334191,
      "semi_major_axis_km": 7007.694587629301,
      "eccentricity": 6.43e-05,
      "inclination_deg": 51.9004,
      "raan_deg": 243.9861,
      "arg_perigee_deg": 100.6562,
      "mean_anomaly_deg": 259.4473,
      "mean_motion_rev_day": 14.79926044
    },
    {
      "epoch": "2026-04-02T19:40:18.508224Z",
      "apogee_km": 629.8278369367426,
      "perigee_km": 628.94488899301,
      "latitude_deg": -3.060916965782336e-05,
      "longitude_deg": 112.67011011497023,
      "height_km": 630.1613984045534,
      "semi_major_axis_km": 7007.5233629648765,
      "eccentricity": 6.3e-05,
      "inclination_deg": 51.9018,
      "raan_deg": 238.9101,
      "arg_perigee_deg": 93.7497,
      "mean_anomaly_deg": 266.3537,
      "mean_motion_rev_day": 14.79980286
    },
    {
      "epoch": "2026-04-03T18:21:42.268320Z",
      "apogee_km": 629.9609705416797,
      "perigee_km": 629.12705650107,
      "latitude_deg": 4.201319912212082e-05,
      "longitude_deg": 127.2076239618916,
      "height_km": 630.3052734991297,
      "semi_major_axis_km": 7007.681013521375,
      "eccentricity": 5.95e-05,
      "inclination_deg": 51.9024,
      "raan_deg": 234.7284,
      "arg_perigee_deg": 92.0638,
      "mean_anomaly_deg": 268.0393,
      "mean_motion_rev_day": 14.79930344
    },
    {
      "epoch": "2026-04-04T15:25:52.735008Z",
      "apogee_km": 630.1003817821274,
      "perigee_km": 629.0772538127294,
      "latitude_deg": 2.9100800165111927e-05,
      "longitude_deg": 166.4172054050934,
      "height_km": 630.2907647138131,
      "semi_major_axis_km": 7007.725817797428,
      "eccentricity": 7.3e-05,
      "inclination_deg": 51.9008,
      "raan_deg": 230.8469,
      "arg_perigee_deg": 85.0706,
      "mean_anomaly_deg": 275.034,
      "mean_motion_rev_day": 14.79916151
    },
    {
      "epoch": "2026-04-05T12:30:03.288096Z",
      "apogee_km": 630.1553686493662,
      "perigee_km": 628.9976943739603,
      "latitude_deg": 7.321107465547943e-06,
      "longitude_deg": -154.37238169808407,
      "height_km": 630.3464569056028,
      "semi_major_axis_km": 7007.713531511663,
      "eccentricity": 8.26e-05,
      "inclination_deg": 51.9029,
      "raan_deg": 226.9666,
      "arg_perigee_deg": 92.3685,
      "mean_anomaly_deg": 267.7372,
      "mean_motion_rev_day": 14.79920043
    },
    {
      "epoch": "2026-04-05T17:21:47.127168Z",
      "apogee_km": 630.1530001892152,
      "perigee_km": 628.9855163265893,
      "latitude_deg": 1.762722285867132e-05,
      "longitude_deg": 131.59958064013352,
      "height_km": 630.323260637798,
      "semi_major_axis_km": 7007.706258257902,
      "eccentricity": 8.33e-05,
      "inclination_deg": 51.9028,
      "raan_deg": 226.0709,
      "arg_perigee_deg": 90.7871,
      "mean_anomaly_deg": 269.3187,
      "mean_motion_rev_day": 14.79922347
    },
    {
      "epoch": "2026-04-06T01:28:00.099264Z",
      "apogee_km": 630.1370959481565,
      "perigee_km": 628.9743795691065,
      "latitude_deg": 4.78823003200937e-05,
      "longitude_deg": 8.219850020951652,
      "height_km": 630.3039049011965,
      "semi_major_axis_km": 7007.692737758631,
      "eccentricity": 8.296e-05,
      "inclination_deg": 51.9027,
      "raan_deg": 224.578,
      "arg_perigee_deg": 90.2161,
      "mean_anomaly_deg": 269.8897,
      "mean_motion_rev_day": 14.7992663
    },
    {
      "epoch": "2026-04-07T17:59:03.954912Z",
      "apogee_km": 630.060023481291,
      "perigee_km": 628.9486115683321,
      "latitude_deg": 6.728279958087141e-05,
      "longitude_deg": 111.32519106300504,
      "height_km": 630.2715628978892,
      "semi_major_axis_km": 7007.641317524812,
      "eccentricity": 7.93e-05,
      "inclination_deg": 51.9029,
      "raan_deg": 217.1134,
      "arg_perigee_deg": 92.1863,
      "mean_anomaly_deg": 267.9191,
      "mean_motion_rev_day": 14.79942919
    },
    {
      "epoch": "2026-04-08T13:25:59.046816Z",
      "apogee_km": 630.3114450722251,
      "perigee_km": 628.7791452615638,
      "latitude_deg": -3.3285983999575237e-06,
      "longitude_deg": 175.21765681438097,
      "height_km": 630.7724467158572,
      "semi_major_axis_km": 7007.682295166895,
      "eccentricity": 0.00010933,
      "inclination_deg": 51.9066,
      "raan_deg": 213.5342,
      "arg_perigee_deg": 128.8696,
      "mean_anomaly_deg": 231.2364,
      "mean_motion_rev_day": 14.79929938
    }
  ]
}